0 THOR ABLESTAR DEB
1 03740U 61015JB  13282.83119649  .00000345  00000-0  24056-3 0  2764
2 03740 066.3350 074.2198 0083584 041.7103 077.5860 14.08773864670031
0 THOR ABLESTAR DEB
1 03740U 61015JB  13283.51775053  .00000686  00000-0  38458-3 0  2788
2 03740 066.3334 072.4650 0083196 041.5361 319.2486 14.08772681670136
0 THOR ABLESTAR DEB
1 03740U 61015JB  13284.52564666  .00000204  00000-0  16125-3 0  2778
2 03740 066.3355 069.8763 0083599 040.6052 031.1748 14.08776723670275
0 THOR ABLESTAR DEB
1 03740U 61015JB  13285.81269999  .00000078  00000-0  91068-4 0  2782
2 03740 066.3357 066.5771 0083596 039.7400 078.6433 14.08778087670455
0 THOR ABLESTAR DEB
1 03740U 61015JB  13287.50635470 -.00000015  00000-0  38910-4 0  2791
2 03740 066.3361 062.2359 0083652 038.6387 028.2191 14.08779495670692
0 THOR ABLESTAR DEB
1 03740U 61015JB  13289.71647509  .00000018  00000-0  57311-4 0  2802
2 03740 066.3362 056.5711 0083678 037.2045 077.1310 14.08780410671006
0 THOR ABLESTAR DEB
1 03740U 61015JB  13290.68796420  .00000577  00000-0  32309-3 0  2817
2 03740 066.3394 054.0822 0083913 037.1115 323.6194 14.08781440671144
0 THOR ABLESTAR DEB
1 03740U 61015JB  13290.99325382  .00000045  00000-0  72144-4 0  2818
2 03740 066.3359 053.2990 0083581 036.3683 072.4897 14.08779703671186
0 THOR ABLESTAR DEB
1 03740U 61015JB  13292.47652587  .00000155  00000-0  13399-3 0  2822
2 03740 066.3364 049.4969 0083933 035.4957 035.0131 14.08779521671397
0 THOR ABLESTAR DEB
1 03740U 61015JB  13293.69351737  .00000265  00000-0  19580-3 0  2831
2 03740 066.3363 046.3775 0083973 034.6986 087.1550 14.08779063671567
0 THOR ABLESTAR DEB
1 03740U 61015JB  13295.45892499  .00000377  00000-0  25864-3 0  2849
2 03740 066.3364 041.8514 0084131 033.4953 040.7110 14.08779806671817
